STARLINK-4481           
1 53418U 22097AG  26183.83336806  .00108784  00000+0  43656-2 0  9991
2 53418  53.1597 305.8569 0000350  51.9472 297.6286 15.24126968  5835
STARLINK-4476           
1 53419U 22097AH  26183.67663829  .00001857  00000+0  13483-3 0  9991
2 53419  53.1648 317.7331 0000567  98.3545 261.7511 15.08808804215988
STARLINK-4552           
1 53420U 22097AJ  26183.83336806  .00088524  00000+0  44525-2 0  9999
2 53420  53.1609 316.8797 0001044 110.4089 159.9872 15.16488255  5835
STARLINK-4545           
1 53421U 22097AK  26183.83336806  .00087142  00000+0  44413-2 0  9991
2 53421  53.1611 316.9050 0001777  83.0501 134.3222 15.16032248  5832
STARLINK-4546           
1 53422U 22097AL  26183.83336806  .00086799  00000+0  44975-2 0  9992
2 53422  53.1604 316.8855 0002024 109.2419 199.0818 15.15451701  5839
STARLINK-4539           
1 53423U 22097AM  26182.00001157 -.00017012  00000+0 -53782-3 0  9990
2 53423  53.1585 323.1865 0000681  49.8466 229.7199 15.31692987  5810
STARLINK-4532           
1 53424U 22097AN  26183.83336806  .00123237  00000+0  62901-2 0  9992
2 53424  53.1608 316.9408 0000241 163.8233 154.7467 15.15767175  5630
STARLINK-4531           
1 53425U 22097AP  26183.77007593  .00006653  00000+0  24249-3 0  9990
2 53425  53.1619 315.6622 0002273  83.4870 276.6390 15.29381433216017
STARLINK-4558           
1 53426U 22097AQ  26183.83336806  .00115232  00000+0  43643-2 0  9992
2 53426  53.1607 306.2293 0001873  68.0277  91.9018 15.26025643  5791
STARLINK-4543           
1 53429U 22097AT  26183.83336806  .00087047  00000+0  36122-2 0  9991
2 53429  53.1589 306.1041 0000918  79.8877 145.2573 15.23125001  5849
STARLINK-4538           
1 53430U 22097AU  26183.83336806  .00085355  00000+0  33942-2 0  9990
2 53430  53.1587 305.9590 0001150  97.2201 203.4176 15.24569817  5797
STARLINK-4548           
1 53431U 22097AV  26183.83336806  .00081056  00000+0  33533-2 0  9991
2 53431  53.1587 305.9457 0001162  73.4291 235.7665 15.23265554  5834
STARLINK-4557           
1 53432U 22097AW  26183.83336806  .00088085  00000+0  34610-2 0  9998
2 53432  53.1605 305.7801 0000849  48.7432 342.4042 15.24954655  5787
STARLINK-4549           
1 53433U 22097AX  26182.76873941  .00001392  00000+0  88884-4 0  9996
2 53433  53.1621 311.2731 0001164  93.9491 266.1636 15.15413671215993
STARLINK-4542           
1 53435U 22097AZ  26183.83336806  .00116289  00000+0  42601-2 0  9998
2 53435  53.1605 305.7504 0001020  47.5089 359.2380 15.27122645  5833
STARLINK-4527           
1 53436U 22097BA  26183.83336806  .00105725  00000+0  43211-2 0  9990
2 53436  53.1587 305.9489 0000393 116.2369 186.9922 15.23528224  5784
STARLINK-4526           
1 53438U 22097BC  26183.83336806  .00086891  00000+0  35293-2 0  9995
2 53438  53.1605 305.7773 0000876  44.6364 347.4300 15.23847846  5739
STARLINK-4519           
1 53439U 22097BD  26183.83336806  .00109272  00000+0  41712-2 0  9998
2 53439  53.1591 305.8925 0000570  95.4242 235.9948 15.25797198  5830
DONGPO 07               
1 53444U 22098A   26183.85193891  .00106531  00000+0  71856-3 0  9990
2 53444  97.5575 316.0152 0003911 261.6148  98.4673 15.74780015217218
JILIN-1 GAOFEN 03D09    
1 53445U 22098B   26183.85131983  .00081144  00000+0  71322-3 0  9995
2 53445  97.5622 314.7214 0002473 276.0408  84.0571 15.68542206217081
2022-098C               
1 53446U 22098C   26183.85405046  .00086443  00000+0  73099-3 0  9990
2 53446  97.5657 315.4480 0001749 278.6689  81.4374 15.69471304217103
JILIN-1 GAOFEN 03D43    
1 53448U 22098E   26183.85544856  .00100254  00000+0  76347-3 0  9991
2 53448  97.5608 315.8180 0002725 265.3381  94.7570 15.71948728217151
DONGPO 05               
1 53449U 22098F   26183.85333528  .00205832  00000+0  85490-3 0  9991
2 53449  97.5511 317.6198 0004167 240.9726 119.1127 15.85219148217341
DONGPO 02               
1 53452U 22098J   26183.85855582  .00136907  00000+0  79574-3 0  9996
2 53452  97.5549 316.4469 0003915 240.8624 119.2250 15.78095950217264
DONGPO 01               
1 53453U 22098K   26183.87258215  .00118089  00000+0  77064-3 0  9992
2 53453  97.5612 316.9444 0002554 223.5498 136.5565 15.75515442217226
STARLINK-4415           
1 53465U 22099A   26183.79469767  .00000703  00000+0  52628-4 0  9996
2 53465  97.2856 303.1024 0001150 108.4221 251.7132 15.05654960213356
STARLINK-4398           
1 53466U 22099B   26183.83336806 -.00812343  00000+0 -94790-2 0  9996
2 53466  97.6043 308.2420 0001518  91.2646 325.7128 15.64110441  5894
STARLINK-4394           
1 53467U 22099C   26183.83336806  .00511438  00000+0  38771-2 0  9993
2 53467  97.6037 309.5933 0000842  60.5360 185.7498 15.70848535  5952
STARLINK-4400           
1 53468U 22099D   26183.59675241 -.00002171  00000+0 -14659-3 0  9997
2 53468  97.2854 301.8289 0001711 122.3730 237.7664 15.05648960213265
STARLINK-4399           
1 53469U 22099E   26183.84446756  .00009492  00000+0  65947-3 0  9990
2 53469  97.2858 303.1765 0003656 124.9440 235.2131 15.05729075213371
