OBJECT_NAME,OBJECT_ID,EPOCH,MEAN_MOTION,ECCENTRICITY,INCLINATION,RA_OF_ASC_NODE,ARG_OF_PERICENTER,MEAN_ANOMALY,EPHEMERIS_TYPE,CLASSIFICATION_TYPE,NORAD_CAT_ID,ELEMENT_SET_NO,REV_AT_EPOCH,BSTAR,MEAN_MOTION_DOT,MEAN_MOTION_DDOT
STARLINK-4481,2022-097AG,2026-07-02T20:00:03.000384,15.24126968,.000035,53.1597,305.8569,51.9472,297.6286,0,U,53418,999,583,.43656E-2,.108784E-2,0
STARLINK-4476,2022-097AH,2026-07-02T16:14:21.548256,15.08808804,.0000567,53.1648,317.7331,98.3545,261.7511,0,U,53419,999,21598,.13483E-3,.1857E-4,0
STARLINK-4552,2022-097AJ,2026-07-02T20:00:03.000384,15.16488255,.0001044,53.1609,316.8797,110.4089,159.9872,0,U,53420,999,583,.44525E-2,.88524E-3,0
STARLINK-4545,2022-097AK,2026-07-02T20:00:03.000384,15.16032248,.0001777,53.1611,316.9050,83.0501,134.3222,0,U,53421,999,583,.44413E-2,.87142E-3,0
STARLINK-4546,2022-097AL,2026-07-02T20:00:03.000384,15.15451701,.0002024,53.1604,316.8855,109.2419,199.0818,0,U,53422,999,583,.44975E-2,.86799E-3,0
STARLINK-4539,2022-097AM,2026-07-01T00:00:00.999648,15.31692987,.00006814,53.1585,323.1865,49.8466,229.7199,0,U,53423,999,581,-.53782154E-3,-.17012E-3,0
STARLINK-4532,2022-097AN,2026-07-02T20:00:03.000384,15.15767175,.0000241,53.1608,316.9408,163.8233,154.7467,0,U,53424,999,563,.62901E-2,.123237E-2,0
STARLINK-4531,2022-097AP,2026-07-02T18:28:54.560352,15.29381433,.0002273,53.1619,315.6622,83.4870,276.6390,0,U,53425,999,21601,.24249E-3,.6653E-4,0
STARLINK-4558,2022-097AQ,2026-07-02T20:00:03.000384,15.26025643,.0001873,53.1607,306.2293,68.0277,91.9018,0,U,53426,999,579,.43643E-2,.115232E-2,0
STARLINK-4543,2022-097AT,2026-07-02T20:00:03.000384,15.23125001,.0000918,53.1589,306.1041,79.8877,145.2573,0,U,53429,999,584,.36122E-2,.87047E-3,0
STARLINK-4538,2022-097AU,2026-07-02T20:00:03.000384,15.24569817,.000115,53.1587,305.9590,97.2201,203.4176,0,U,53430,999,579,.33942E-2,.85355E-3,0
STARLINK-4548,2022-097AV,2026-07-02T20:00:03.000384,15.23265554,.0001162,53.1587,305.9457,73.4291,235.7665,0,U,53431,999,583,.33533E-2,.81056E-3,0
STARLINK-4557,2022-097AW,2026-07-02T20:00:03.000384,15.24954655,.0000849,53.1605,305.7801,48.7432,342.4042,0,U,53432,999,578,.3461E-2,.88085E-3,0
STARLINK-4549,2022-097AX,2026-07-01T18:26:59.085024,15.15413671,.0001164,53.1621,311.2731,93.9491,266.1636,0,U,53433,999,21599,.88884237E-4,.1392E-4,0
STARLINK-4542,2022-097AZ,2026-07-02T20:00:03.000384,15.27122645,.000102,53.1605,305.7504,47.5089,359.2380,0,U,53435,999,583,.42601E-2,.116289E-2,0
STARLINK-4527,2022-097BA,2026-07-02T20:00:03.000384,15.23528224,.0000393,53.1587,305.9489,116.2369,186.9922,0,U,53436,999,578,.43211E-2,.105725E-2,0
STARLINK-4526,2022-097BC,2026-07-02T20:00:03.000384,15.23847846,.0000876,53.1605,305.7773,44.6364,347.4300,0,U,53438,999,573,.35293E-2,.86891E-3,0
STARLINK-4519,2022-097BD,2026-07-02T20:00:03.000384,15.25797198,.000057,53.1591,305.8925,95.4242,235.9948,0,U,53439,999,583,.41712E-2,.109272E-2,0
DONGPO 07,2022-098A,2026-07-02T20:26:47.521824,15.74780015,.0003911,97.5575,316.0152,261.6148,98.4673,0,U,53444,999,21721,.71856E-3,.106531E-2,0
JILIN-1 GAOFEN 03D09,2022-098B,2026-07-02T20:25:54.033312,15.68542206,.0002473,97.5622,314.7214,276.0408,84.0571,0,U,53445,999,21708,.71322E-3,.81144E-3,0
2022-098C,2022-098C,2026-07-02T20:29:49.959744,15.69471304,.0001749,97.5657,315.4480,278.6689,81.4374,0,U,53446,999,21710,.73099E-3,.86443E-3,0
JILIN-1 GAOFEN 03D43,2022-098E,2026-07-02T20:31:50.755584,15.71948728,.0002725,97.5608,315.8180,265.3381,94.7570,0,U,53448,999,21715,.76347E-3,.100254E-2,0
DONGPO 05,2022-098F,2026-07-02T20:28:48.168192,15.85219148,.0004167,97.5511,317.6198,240.9726,119.1127,0,U,53449,999,21734,.8549E-3,.205832E-2,0
DONGPO 02,2022-098J,2026-07-02T20:36:19.222848,15.78095950,.0003915,97.5549,316.4469,240.8624,119.2250,0,U,53452,999,21726,.79574E-3,.136907E-2,0
DONGPO 01,2022-098K,2026-07-02T20:56:31.097760,15.75515442,.0002554,97.5612,316.9444,223.5498,136.5565,0,U,53453,999,21722,.77064E-3,.118089E-2,0
STARLINK-4415,2022-099A,2026-07-02T19:04:21.878688,15.05654960,.000115,97.2856,303.1024,108.4221,251.7132,0,U,53465,999,21335,.52628E-4,.703E-5,0
STARLINK-4398,2022-099B,2026-07-02T20:00:03.000384,15.64110441,.0001518,97.6043,308.2420,91.2646,325.7128,0,U,53466,999,589,-.9479E-2,-.812343E-2,0
STARLINK-4394,2022-099C,2026-07-02T20:00:03.000384,15.70848535,.0000842,97.6037,309.5933,60.5360,185.7498,0,U,53467,999,595,.38771E-2,.511438E-2,0
STARLINK-4400,2022-099D,2026-07-02T14:19:19.408224,15.05648960,.0001711,97.2854,301.8289,122.3730,237.7664,0,U,53468,999,21326,-.14659E-3,-.2171E-4,0
STARLINK-4399,2022-099E,2026-07-02T20:16:01.997184,15.05729075,.0003656,97.2858,303.1765,124.9440,235.2131,0,U,53469,999,21337,.65947E-3,.9492E-4,0
